[{"CCSDS_OMM_VERS":"2.0","COMMENT":"GENERATED VIA SPACE-TRACK.ORG API","CREATION_DATE":"2021-10-03T04:23:41","ORIGINATOR":"18 SPCS","OBJECT_NAME":"TBA - TO BE ASSIGNED","OBJECT_ID":"","CENTER_NAME":"EARTH","REF_FRAME":"TEME","TIME_SYSTEM":"UTC","MEAN_ELEMENT_THEORY":"SGP4","EPOCH":"2021-10-02T11:52:30.950688","MEAN_MOTION":"14.44746572","ECCENTRICITY":"0.00127752","INCLINATION":"98.1177","RA_OF_ASC_NODE":"193.7691","ARG_OF_PERICENTER":"101.5799","MEAN_ANOMALY":"258.6828","EPHEMERIS_TYPE":"0","CLASSIFICATION_TYPE":"U","NORAD_CAT_ID":"270064","ELEMENT_SET_NO":"999","REV_AT_EPOCH":"9708","BSTAR":"0.00005258405100","MEAN_MOTION_DOT":"0.00000142","MEAN_MOTION_DDOT":"0.0000000000000","SEMIMAJOR_AXIS":"7120.996","PERIOD":"99.671","APOAPSIS":"751.958","PERIAPSIS":"733.764","OBJECT_TYPE":"TBA","RCS_SIZE":null,"COUNTRY_CODE":null,"LAUNCH_DATE":null,"SITE":null,"DECAY_DATE":null,"FILE":"3141323","GP_ID":"186041784","TLE_LINE0":"0 TBA - TO BE ASSIGNED","TLE_LINE1":"1 T0064U          21275.49480267  .00000142  00000-0  52584-4 0  9992","TLE_LINE2":"2 T0064  98.1177 193.7691 0012775 101.5799 258.6828 14.44746572 97082"},{"CCSDS_OMM_VERS":"2.0","COMMENT":"GENERATED VIA SPACE-TRACK.ORG API","CREATION_DATE":"2021-10-02T19:42:11","ORIGINATOR":"18 SPCS","OBJECT_NAME":"TBA - TO BE ASSIGNED","OBJECT_ID":"","CENTER_NAME":"EARTH","REF_FRAME":"TEME","TIME_SYSTEM":"UTC","MEAN_ELEMENT_THEORY":"SGP4","EPOCH":"2021-10-02T02:09:28.230912","MEAN_MOTION":"14.22521779","ECCENTRICITY":"0.00367440","INCLINATION":"98.6825","RA_OF_ASC_NODE":"209.1787","ARG_OF_PERICENTER":"172.5615","MEAN_ANOMALY":"187.6116","EPHEMERIS_TYPE":"0","CLASSIFICATION_TYPE":"U","NORAD_CAT_ID":"270063","ELEMENT_SET_NO":"999","REV_AT_EPOCH":"9604","BSTAR":"0.00005507153800","MEAN_MOTION_DOT":"0.00000080","MEAN_MOTION_DDOT":"0.0000000000000","SEMIMAJOR_AXIS":"7194.974","PERIOD":"101.229","APOAPSIS":"843.276","PERIAPSIS":"790.402","OBJECT_TYPE":"TBA","RCS_SIZE":null,"COUNTRY_CODE":null,"LAUNCH_DATE":null,"SITE":null,"DECAY_DATE":null,"FILE":"3140732","GP_ID":"186003978","TLE_LINE0":"0 TBA - TO BE ASSIGNED","TLE_LINE1":"1 T0063U          21275.08991008  .00000080  00000-0  55072-4 0  9992","TLE_LINE2":"2 T0063  98.6825 209.1787 0036744 172.5615 187.6116 14.22521779 96043"},{"CCSDS_OMM_VERS":"2.0","COMMENT":"GENERATED VIA SPACE-TRACK.ORG API","CREATION_DATE":"2021-10-03T04:23:41","ORIGINATOR":"18 SPCS","OBJECT_NAME":"TBA - TO BE ASSIGNED","OBJECT_ID":"","CENTER_NAME":"EARTH","REF_FRAME":"TEME","TIME_SYSTEM":"UTC","MEAN_ELEMENT_THEORY":"SGP4","EPOCH":"2021-10-02T07:36:40.759488","MEAN_MOTION":"14.75359500","ECCENTRICITY":"0.00153901","INCLINATION":"86.4145","RA_OF_ASC_NODE":"291.0222","ARG_OF_PERICENTER":"37.9279","MEAN_ANOMALY":"322.3021","EPHEMERIS_TYPE":"0","CLASSIFICATION_TYPE":"U","NORAD_CAT_ID":"270062","ELEMENT_SET_NO":"999","REV_AT_EPOCH":"9962","BSTAR":"0.00075498082000","MEAN_MOTION_DOT":"0.00005153","MEAN_MOTION_DDOT":"0.0000000000000","SEMIMAJOR_AXIS":"7022.147","PERIOD":"97.603","APOAPSIS":"654.819","PERIAPSIS":"633.205","OBJECT_TYPE":"TBA","RCS_SIZE":null,"COUNTRY_CODE":null,"LAUNCH_DATE":null,"SITE":null,"DECAY_DATE":null,"FILE":"3141323","GP_ID":"186041437","TLE_LINE0":"0 TBA - TO BE ASSIGNED","TLE_LINE1":"1 T0062U          21275.31713842  .00005153  00000-0  75498-3 0  9994","TLE_LINE2":"2 T0062  86.4145 291.0222 0015390  37.9279 322.3021 14.75359500 99629"},{"CCSDS_OMM_VERS":"2.0","COMMENT":"GENERATED VIA SPACE-TRACK.ORG API","CREATION_DATE":"2021-10-02T03:59:35","ORIGINATOR":"18 SPCS","OBJECT_NAME":"TBA - TO BE ASSIGNED","OBJECT_ID":"","CENTER_NAME":"EARTH","REF_FRAME":"TEME","TIME_SYSTEM":"UTC","MEAN_ELEMENT_THEORY":"SGP4","EPOCH":"2021-10-01T20:25:10.173216","MEAN_MOTION":"12.16918800","ECCENTRICITY":"0.04948977","INCLINATION":"82.0583","RA_OF_ASC_NODE":"317.5363","ARG_OF_PERICENTER":"60.1535","MEAN_ANOMALY":"304.7770","EPHEMERIS_TYPE":"0","CLASSIFICATION_TYPE":"U","NORAD_CAT_ID":"270061","ELEMENT_SET_NO":"999","REV_AT_EPOCH":"8211","BSTAR":"-0.01279495200000","MEAN_MOTION_DOT":"-0.00001855","MEAN_MOTION_DDOT":"0.0000000000000","SEMIMAJOR_AXIS":"7984.127","PERIOD":"118.332","APOAPSIS":"2001.125","PERIAPSIS":"1210.859","OBJECT_TYPE":"TBA","RCS_SIZE":null,"COUNTRY_CODE":null,"LAUNCH_DATE":null,"SITE":null,"DECAY_DATE":null,"FILE":"3139397","GP_ID":"185950953","TLE_LINE0":"0 TBA - TO BE ASSIGNED","TLE_LINE1":"1 T0061U          21274.85081219 -.00001855  00000-0 -12795-1 0  9993","TLE_LINE2":"2 T0061  82.0583 317.5363 0494898  60.1535 304.7770 12.16918800 82111"},{"CCSDS_OMM_VERS":"2.0","COMMENT":"GENERATED VIA SPACE-TRACK.ORG API","CREATION_DATE":"2021-10-03T04:23:41","ORIGINATOR":"18 SPCS","OBJECT_NAME":"TBA - TO BE ASSIGNED","OBJECT_ID":"","CENTER_NAME":"EARTH","REF_FRAME":"TEME","TIME_SYSTEM":"UTC","MEAN_ELEMENT_THEORY":"SGP4","EPOCH":"2021-10-02T07:55:32.850912","MEAN_MOTION":"13.34333022","ECCENTRICITY":"0.05365084","INCLINATION":"30.0944","RA_OF_ASC_NODE":"142.4168","ARG_OF_PERICENTER":"314.1732","MEAN_ANOMALY":"41.5927","EPHEMERIS_TYPE":"0","CLASSIFICATION_TYPE":"U","NORAD_CAT_ID":"270060","ELEMENT_SET_NO":"999","REV_AT_EPOCH":"9031","BSTAR":"-0.00070638184000","MEAN_MOTION_DOT":"-0.00000751","MEAN_MOTION_DDOT":"0.0000000000000","SEMIMAJOR_AXIS":"7508.601","PERIOD":"107.919","APOAPSIS":"1533.309","PERIAPSIS":"727.623","OBJECT_TYPE":"TBA","RCS_SIZE":null,"COUNTRY_CODE":null,"LAUNCH_DATE":null,"SITE":null,"DECAY_DATE":null,"FILE":"3141323","GP_ID":"186041842","TLE_LINE0":"0 TBA - TO BE ASSIGNED","TLE_LINE1":"1 T0060U          21275.33024133 -.00000751  00000-0 -70638-3 0  9994","TLE_LINE2":"2 T0060  30.0944 142.4168 0536508 314.1732  41.5927 13.34333022 90317"},{"CCSDS_OMM_VERS":"2.0","COMMENT":"GENERATED VIA SPACE-TRACK.ORG API","CREATION_DATE":"2021-10-02T19:42:11","ORIGINATOR":"18 SPCS","OBJECT_NAME":"TBA - TO BE ASSIGNED","OBJECT_ID":"","CENTER_NAME":"EARTH","REF_FRAME":"TEME","TIME_SYSTEM":"UTC","MEAN_ELEMENT_THEORY":"SGP4","EPOCH":"2021-10-02T01:27:23.429376","MEAN_MOTION":"12.22830655","ECCENTRICITY":"0.01298069","INCLINATION":"73.9991","RA_OF_ASC_NODE":"184.7578","ARG_OF_PERICENTER":"61.4493","MEAN_ANOMALY":"299.9537","EPHEMERIS_TYPE":"0","CLASSIFICATION_TYPE":"U","NORAD_CAT_ID":"270059","ELEMENT_SET_NO":"999","REV_AT_EPOCH":"8261","BSTAR":"0.00030038446000","MEAN_MOTION_DOT":"0.00000019","MEAN_MOTION_DDOT":"0.0000000000000","SEMIMAJOR_AXIS":"7958.373","PERIOD":"117.760","APOAPSIS":"1683.543","PERIAPSIS":"1476.933","OBJECT_TYPE":"TBA","RCS_SIZE":null,"COUNTRY_CODE":null,"LAUNCH_DATE":null,"SITE":null,"DECAY_DATE":null,"FILE":"3140732","GP_ID":"186003805","TLE_LINE0":"0 TBA - TO BE ASSIGNED","TLE_LINE1":"1 T0059U          21275.06068784  .00000019  00000-0  30038-3 0  9997","TLE_LINE2":"2 T0059  73.9991 184.7578 0129807  61.4493 299.9537 12.22830655 82613"},{"CCSDS_OMM_VERS":"2.0","COMMENT":"GENERATED VIA SPACE-TRACK.ORG API","CREATION_DATE":"2021-10-02T03:59:35","ORIGINATOR":"18 SPCS","OBJECT_NAME":"TBA - TO BE ASSIGNED","OBJECT_ID":"","CENTER_NAME":"EARTH","REF_FRAME":"TEME","TIME_SYSTEM":"UTC","MEAN_ELEMENT_THEORY":"SGP4","EPOCH":"2021-10-01T20:26:03.092352","MEAN_MOTION":"12.97041750","ECCENTRICITY":"0.00268088","INCLINATION":"90.2741","RA_OF_ASC_NODE":"326.3347","ARG_OF_PERICENTER":"245.5593","MEAN_ANOMALY":"114.2730","EPHEMERIS_TYPE":"0","CLASSIFICATION_TYPE":"U","NORAD_CAT_ID":"270058","ELEMENT_SET_NO":"999","REV_AT_EPOCH":"8758","BSTAR":"-0.00025494962000","MEAN_MOTION_DOT":"-0.00000067","MEAN_MOTION_DDOT":"0.0000000000000","SEMIMAJOR_AXIS":"7651.840","PERIOD":"111.022","APOAPSIS":"1294.219","PERIAPSIS":"1253.191","OBJECT_TYPE":"TBA","RCS_SIZE":null,"COUNTRY_CODE":null,"LAUNCH_DATE":null,"SITE":null,"DECAY_DATE":null,"FILE":"3139397","GP_ID":"185950725","TLE_LINE0":"0 TBA - TO BE ASSIGNED","TLE_LINE1":"1 T0058U          21274.85142468 -.00000067  00000-0 -25495-3 0  9990","TLE_LINE2":"2 T0058  90.2741 326.3347 0026809 245.5593 114.2730 12.97041750 87586"},{"CCSDS_OMM_VERS":"2.0","COMMENT":"GENERATED VIA SPACE-TRACK.ORG API","CREATION_DATE":"2021-10-02T03:59:35","ORIGINATOR":"18 SPCS","OBJECT_NAME":"TBA - TO BE ASSIGNED","OBJECT_ID":"","CENTER_NAME":"EARTH","REF_FRAME":"TEME","TIME_SYSTEM":"UTC","MEAN_ELEMENT_THEORY":"SGP4","EPOCH":"2021-10-01T20:41:08.853792","MEAN_MOTION":"12.95470302","ECCENTRICITY":"0.00309581","INCLINATION":"90.2753","RA_OF_ASC_NODE":"333.0744","ARG_OF_PERICENTER":"10.5296","MEAN_ANOMALY":"349.6465","EPHEMERIS_TYPE":"0","CLASSIFICATION_TYPE":"U","NORAD_CAT_ID":"270057","ELEMENT_SET_NO":"999","REV_AT_EPOCH":"8746","BSTAR":"0.00035268369000","MEAN_MOTION_DOT":"0.00000107","MEAN_MOTION_DDOT":"0.0000000000000","SEMIMAJOR_AXIS":"7658.027","PERIOD":"111.157","APOAPSIS":"1303.599","PERIAPSIS":"1256.184","OBJECT_TYPE":"TBA","RCS_SIZE":null,"COUNTRY_CODE":null,"LAUNCH_DATE":null,"SITE":null,"DECAY_DATE":null,"FILE":"3139397","GP_ID":"185950782","TLE_LINE0":"0 TBA - TO BE ASSIGNED","TLE_LINE1":"1 T0057U          21274.86190803  .00000107  00000-0  35268-3 0  9998","TLE_LINE2":"2 T0057  90.2753 333.0744 0030958  10.5296 349.6465 12.95470302 87467"}]